ONEWEB-0235             
1 48771U 21045E   24340.63934849 -.00000002  00000+0 -38080-4 0  9994
2 48771  87.9074  10.3914 0001559  72.1962 287.9339 13.15548520172060
ONEWEB-0242             
1 48772U 21045F   24340.55695936  .00000120  00000+0  28521-3 0  9994
2 48772  87.9074  10.3948 0001782  86.2942 273.8392 13.15548326170975
ONEWEB-0241             
1 48773U 21045G   24340.54425882  .00000113  00000+0  26633-3 0  9999
2 48773  87.9083  10.4604 0001354  92.2147 267.9138 13.15547275170889
ONEWEB-0243             
1 48774U 21045H   24340.57594888 -.00000060  00000+0 -19376-3 0  9995
2 48774  87.9085  10.4142 0001647  76.1698 283.9615 13.15552165170912
ONEWEB-0222             
1 48775U 21045J   24340.78749755  .00000118  00000+0  27911-3 0  9990
2 48775  87.9074  10.3575 0001597  90.6152 269.5161 13.15548254172103
ONEWEB-0244             
1 48776U 21045K   24340.58547274 -.00000042  00000+0 -14646-3 0  9990
2 48776  87.9070  10.3778 0001865  89.0082 271.1262 13.15548521171520
ONEWEB-0247             
1 48777U 21045L   24340.58231080 -.00002236  00000+0 -59766-2 0  9994
2 48777  87.9094  10.4325 0001675  62.3764 297.7537 13.15528385170968
ONEWEB-0245             
1 48778U 21045M   24340.57754315 -.00000092  00000+0 -27934-3 0  9996
2 48778  87.9073  10.4122 0001524  94.9752 265.1553 13.15547851170935
